H1 CPF 01  gfz 2022 06 13 00  6641 terrasarx 
H2 0702601  6201 31698    2022 06 13 00 59 42 2022 06 18 00 00 42   120 1 1  0 0 0
H9
10 0 59745  12942.000000  0    3322439.010   3275883.709   5058335.537
10 0 59745  13062.000000  0    3915151.290   3550985.567   4408653.340
10 0 59745  13182.000000  0    4443630.187   3754218.274   3681376.990
10 0 59745  13302.000000  0    4897339.546   3883228.249   2889289.507
10 0 59745  13422.000000  0    5267027.409   3937139.127   2046327.342
10 0 59745  13542.000000  0    5544919.805   3916546.132   1167332.898
10 0 59745  13662.000000  0    5724887.684   3823480.739    267786.940
10 0 59745  13782.000000  0    5802581.713   3661345.121   -636472.650
10 0 59745  13902.000000  0    5775530.984   3434818.421  -1529538.531
10 0 59745  14022.000000  0    5643203.934   3149737.259  -2395721.962
10 0 59745  14142.000000  0    5407029.626   2812954.238  -3219834.439
10 0 59745  14262.000000  0    5070380.875   2432178.359  -3987457.383
10 0 59745  14382.000000  0    4638519.292   2015800.952  -4685196.022
10 0 59745  14502.000000  0    4118501.802   1572710.854  -5300909.458
10 0 59745  14622.000000  0    3519055.857   1112105.817  -5823913.855
10 0 59745  14742.000000  0    2850424.855    643303.575  -6245158.500
10 0 59745  14862.000000  0    2124186.658    175555.934  -6557371.061
10 0 59745  14982.000000  0    1353051.160   -282129.688  -6755171.381
10 0 59745  15102.000000  0     550639.447   -721159.678  -6835156.015
10 0 59745  15222.000000  0    -268754.520  -1133511.566  -6795949.666
10 0 59745  15342.000000  0   -1090412.086  -1511876.132  -6638225.155
10 0 59745  15462.000000  0   -1899447.892  -1849783.796  -6364694.126
10 0 59745  15582.000000  0   -2681073.850  -2141713.696  -5980065.042
10 0 59745  15702.000000  0   -3420863.661  -2383183.029  -5490970.530
10 0 59745  15822.000000  0   -4105017.459  -2570817.238  -4905865.413
10 0 59745  15942.000000  0   -4720621.917  -2702398.524  -4234891.816
10 0 59745  16062.000000  0   -5255898.668  -2776891.188  -3489713.635
10 0 59745  16182.000000  0   -5700437.569  -2794443.433  -2683322.197
10 0 59745  16302.000000  0   -6045408.837  -2756364.657  -1829814.478
10 0 59745  16422.000000  0   -6283748.032  -2665078.806   -944147.922
10 0 59745  16542.000000  0   -6410309.517  -2524054.093    -41875.651
10 0 59745  16662.000000  0   -6421983.315  -2337710.476    861132.259
10 0 59745  16782.000000  0   -6317772.600  -2111307.063   1748976.434
10 0 59745  16902.000000  0   -6098827.110  -1850812.129   2606018.203
10 0 59745  17022.000000  0   -5768432.797  -1562759.122   3417162.954
10 0 59745  17142.000000  0   -5331959.816  -1254092.555   4168133.687
10 0 59745  17262.000000  0   -4796766.016   -932007.173   4845727.026
10 0 59745  17382.000000  0   -4172063.555   -603785.767   5438044.348
10 0 59745  17502.000000  0   -3468752.516   -276639.187   5934699.057
10 0 59745  17622.000000  0   -2699221.936     42449.097   6326995.361
10 0 59745  17742.000000  0   -1877123.907    346869.005   6608074.558
10 0 59745  17862.000000  0   -1017126.412    630517.202   6773028.554
10 0 59745  17982.000000  0    -134649.580    887917.498   6818979.884
10 0 59745  18102.000000  0     754410.543   1114325.221   6745128.180
10 0 59745  18222.000000  0    1633967.181   1305814.477   6552763.348
10 0 59745  18342.000000  0    2488032.945   1459346.595   6245244.247
10 0 59745  18462.000000  0    3301010.081   1572818.325   5827944.291
10 0 59745  18582.000000  0    4057977.958   1645089.483   5308162.980
10 0 59745  18702.000000  0    4744969.817   1675989.554   4695003.800
10 0 59745  18822.000000  0    5349236.890   1666304.083   3999222.594
10 0 59745  18942.000000  0    5859495.900   1617739.662   3233042.105
10 0 59745  19062.000000  0    6266147.728   1532868.458   2409936.843
10 0 59745  19182.000000  0    6561467.750   1415052.785   1544395.802
10 0 59745  19302.000000  0    6739760.792   1268352.574    651661.806
10 0 59745  19422.000000  0    6797475.881   1097417.449   -252543.732
10 0 59745  19542.000000  0    6733279.322    907366.010  -1152306.950
10 0 59745  19662.000000  0    6548080.797    703654.863  -2031810.636
10 0 59745  19782.000000  0    6245015.569    491941.040  -2875619.030
10 0 59745  19902.000000  0    5829382.545    277942.517  -3668954.020
10 0 59745  20022.000000  0    5308540.174     67299.699  -4397956.455
10 0 59745  20142.000000  0    4691762.187   -134558.770  -5049926.332
10 0 59745  20262.000000  0    3990060.123   -322542.197  -5613537.010
10 0 59745  20382.000000  0    3215977.693   -492013.633  -6079023.451
10 0 59745  20502.000000  0    2383359.172   -638893.578  -6438341.746
10 0 59745  20622.000000  0    1507097.868   -759748.509  -6685295.762
10 0 59745  20742.000000  0     602871.272   -851864.225  -6815633.772
10 0 59745  20862.000000  0    -313136.307   -913301.770  -6827114.268
10 0 59745  20982.000000  0   -1224517.031   -942935.364  -6719539.375
10 0 59745  21102.000000  0   -2114926.573   -940472.502  -6494758.542
10 0 59745  21222.000000  0   -2968371.010   -906455.266  -6156639.118
10 0 59745  21342.000000  0   -3769487.334   -842243.507  -5711006.771
10 0 59745  21462.000000  0   -4503818.582   -749979.958  -5165556.845
10 0 59745  21582.000000  0   -5158077.175   -632537.179  -4529732.364
10 0 59745  21702.000000  0   -5720390.792   -493448.024  -3814572.085
10 0 59745  21822.000000  0   -6180528.017   -336820.118  -3032528.778
10 0 59745  21942.000000  0   -6530096.389   -167235.263  -2197258.499
10 0 59745  22062.000000  0   -6762708.815     10362.752  -1323385.636
10 0 59745  22182.000000  0   -6874114.253    190791.362   -426245.229
10 0 59745  22302.000000  0   -6862284.524    368758.902    478392.784
10 0 59745  22422.000000  0   -6727457.077    538998.131   1374607.028
10 0 59745  22542.000000  0   -6472134.171    696399.768   2246613.328
10 0 59745  22662.000000  0   -6101035.697    836142.794   3079052.217
10 0 59745  22782.000000  0   -5621006.411    953818.238   3857267.851
10 0 59745  22902.000000  0   -5040880.759   1045542.979   4567571.157
10 0 59745  23022.000000  0   -4371310.241   1108060.877   5197482.524
10 0 59745  23142.000000  0   -3624557.985   1138828.656   5735949.486
10 0 59745  23262.000000  0   -2814265.786   1136085.224   6173537.622
10 0 59745  23382.000000  0   -1955197.450   1098902.648   6502591.795
10 0 59745  23502.000000  0   -1062963.189   1027218.608   6717363.972
10 0 59745  23622.000000  0    -153733.146    921848.669   6814106.316
10 0 59745  23742.000000  0     756055.331    784478.803   6791131.840
10 0 59745  23862.000000  0    1649993.537    617638.418   6648841.818
10 0 59745  23982.000000  0    2511995.990    424654.362   6389719.393
10 0 59745  24102.000000  0    3326589.569    209586.255   6018290.034
10 0 59745  24222.000000  0    4079193.574    -22856.155   5541047.514
10 0 59745  24342.000000  0    4756384.432   -267412.083   4966346.114
10 0 59745  24462.000000  0    5346141.267   -518383.233   4304260.323
10 0 59745  24582.000000  0    5838067.684   -769760.196   3566413.295
10 0 59745  24702.000000  0    6223585.661  -1015358.690   2765775.560
10 0 59745  24822.000000  0    6496095.216  -1248962.787   1916435.929
10 0 59745  24942.000000  0    6651095.266  -1464470.733   1033349.722
10 0 59745  25062.000000  0    6686264.216  -1656041.747    132070.259
10 0 59745  25182.000000  0    6601497.454  -1818239.531   -771534.147
10 0 59745  25302.000000  0    6398897.983  -1946166.821  -1661568.752
10 0 59745  25422.000000  0    6082723.601  -2035589.454  -2522400.522
10 0 59745  25542.000000  0    5659290.172  -2083045.845  -3338939.063
10 0 59745  25662.000000  0    5136835.726  -2085939.548  -4096903.745
10 0 59745  25782.000000  0    4525350.031  -2042612.894  -4783072.932
10 0 59745  25902.000000  0    3836372.872  -1952400.641  -5385511.143
10 0 59745  26022.000000  0    3082766.011  -1815662.472  -5893768.812
10 0 59745  26142.000000  0    2278466.999  -1633793.603  -6299052.465
10 0 59745  26262.000000  0    1438229.330  -1409213.900  -6594366.902
10 0 59745  26382.000000  0     577351.103  -1145335.953  -6774625.157
10 0 59745  26502.000000  0    -288600.024   -846513.571  -6836726.526
10 0 59745  26622.000000  0   -1144062.480   -517970.770  -6779603.601
10 0 59745  26742.000000  0   -1973753.983   -165712.497  -6604238.926
10 0 59745  26862.000000  0   -2762938.500    203582.485  -6313648.893
10 0 59745  26982.000000  0   -3497681.895    582683.933  -5912837.238
10 0 59745  27102.000000  0   -4165095.679    963947.140  -5408718.974
10 0 59745  27222.000000  0   -4753564.782   1339461.825  -4810011.982
10 0 59745  27342.000000  0   -5252955.396   1701212.208  -4127098.900
10 0 59745  27462.000000  0   -5654798.020   2041244.845  -3371856.504
10 0 59745  27582.000000  0   -5952441.244   2351839.211  -2557457.165
10 0 59745  27702.000000  0   -6141173.684   2625678.622  -1698143.869
10 0 59745  27822.000000  0   -6218309.589   2856017.506   -808981.793
10 0 59745  27942.000000  0   -6183235.426   3036840.538     94409.171
10 0 59745  28062.000000  0   -6037414.742   3163008.813    996136.130
10 0 59745  28182.000000  0   -5784349.808   3230389.543   1880321.516
10 0 59745  28302.000000  0   -5429502.162   3235965.629   2731391.703
10 0 59745  28422.000000  0   -4980174.202   3177922.401   3534359.236
10 0 59745  28542.000000  0   -4445354.623   3055708.811   4275093.775
10 0 59745  28662.000000  0   -3835531.440   2870071.582   4940574.001
10 0 59745  28782.000000  0   -3162479.456   2623062.923   5519116.397
10 0 59745  28902.000000  0   -2439025.855   2318021.906   6000579.048
10 0 59745  29022.000000  0   -1678798.834   1959528.797   6376535.028
10 0 59745  29142.000000  0    -895965.572   1553334.200   6640413.495
10 0 59745  29262.000000  0    -104966.483   1106264.682   6787606.983
10 0 59745  29382.000000  0     679750.582    626106.660   6815546.809
99
